start=new Date('2022-10-19T00:00:00.000Z').valueOf();
sats=[{"SITE":"AFWTR","SEMIMAJOR_AXIS":"6917.845","BSTAR":"-0.00034204000000","TIME_SYSTEM":"UTC","GP_ID":"215529865","MEAN_ELEMENT_THEORY":"SGP4","REV_AT_EPOCH":"4969","TLE_LINE1":"1 50177U 21125X   22291.60585402 -.00005730  00000-0 -34204-3 0  9990","PERIOD":"95.437","OBJECT_TYPE":"PAYLOAD","CENTER_NAME":"EARTH","MEAN_MOTION_DOT":"-0.00005730","OBJECT_NAME":"STARLINK-3282","EPOCH":"2022-10-18T14:32:25.787328","EPHEMERIS_TYPE":"0","INCLINATION":"53.2189","NORAD_CAT_ID":"50177","CLASSIFICATION_TYPE":"U","OBJECT_ID":"2021-125X","FILE":"3621750","ELEMENT_SET_NO":"999","MEAN_MOTION":"15.08851431","ARG_OF_PERICENTER":"38.5478","REF_FRAME":"TEME","RCS_SIZE":"LARGE","APOAPSIS":"541.371","MEAN_MOTION_DDOT":"0.0000000000000","RA_OF_ASC_NODE":"47.1064","DECAY_DATE":null,"LAUNCH_DATE":"2021-12-18","ECCENTRICITY":"0.00024010","MEAN_ANOMALY":"321.5685","PERIAPSIS":"538.049","TLE_LINE2":"2 50177  53.2189  47.1064 0002401  38.5478 321.5685 15.08851431 49698","COUNTRY_CODE":"US"},{"MEAN_ANOMALY":"314.3338","COUNTRY_CODE":"US","TLE_LINE2":"2 50178  53.2155  46.6711 0002268  45.7840 314.3338 15.08824990 49740","PERIAPSIS":"538.222","LAUNCH_DATE":"2021-12-18","DECAY_DATE":null,"ECCENTRICITY":"0.00022680","APOAPSIS":"541.360","RCS_SIZE":"LARGE","REF_FRAME":"TEME","RA_OF_ASC_NODE":"46.6711","MEAN_MOTION_DDOT":"0.0000000000000","FILE":"3621750","ELEMENT_SET_NO":"999","MEAN_MOTION":"15.08824990","OBJECT_ID":"2021-125Y","CLASSIFICATION_TYPE":"U","ARG_OF_PERICENTER":"45.7840","EPHEMERIS_TYPE":"0","EPOCH":"2022-10-18T16:44:55.166208","OBJECT_NAME":"STARLINK-3284","NORAD_CAT_ID":"50178","INCLINATION":"53.2155","PERIOD":"95.439","OBJECT_TYPE":"PAYLOAD","CENTER_NAME":"EARTH","MEAN_MOTION_DOT":"0.00000734","BSTAR":"0.00006424200000","TLE_LINE1":"1 50178U 21125Y   22291.69786072  .00000734  00000-0  64242-4 0  9999","REV_AT_EPOCH":"4974","MEAN_ELEMENT_THEORY":"SGP4","GP_ID":"215530624","TIME_SYSTEM":"UTC","SITE":"AFWTR","SEMIMAJOR_AXIS":"6917.926"},{"ARG_OF_PERICENTER":"33.2473","CLASSIFICATION_TYPE":"U","FILE":"3621750","MEAN_MOTION":"15.08827438","ELEMENT_SET_NO":"999","OBJECT_ID":"2021-125Z","MEAN_MOTION_DDOT":"0.0000000000000","RA_OF_ASC_NODE":"47.1374","REF_FRAME":"TEME","APOAPSIS":"541.402","RCS_SIZE":"LARGE","ECCENTRICITY":"0.00023390","DECAY_DATE":null,"LAUNCH_DATE":"2021-12-18","PERIAPSIS":"538.166","TLE_LINE2":"2 50179  53.2185  47.1374 0002339  33.2473 326.8666 15.08827438 49694","COUNTRY_CODE":"US","MEAN_ANOMALY":"326.8666","SEMIMAJOR_AXIS":"6917.919","SITE":"AFWTR","TIME_SYSTEM":"UTC","GP_ID":"215528873","MEAN_ELEMENT_THEORY":"SGP4","REV_AT_EPOCH":"4969","TLE_LINE1":"1 50179U 21125Z   22291.59850329 -.00001380  00000-0 -68651-4 0  9994","BSTAR":"-0.00006865100000","MEAN_MOTION_DOT":"-0.00001380","CENTER_NAME":"EARTH","PERIOD":"95.438","OBJECT_TYPE":"PAYLOAD","INCLINATION":"53.2185","NORAD_CAT_ID":"50179","OBJECT_NAME":"STARLINK-3283","EPOCH":"2022-10-18T14:21:50.684256","EPHEMERIS_TYPE":"0"},{"ARG_OF_PERICENTER":"43.7541","ELEMENT_SET_NO":"999","FILE":"3621750","OBJECT_ID":"2021-125AA","MEAN_MOTION":"15.08842718","CLASSIFICATION_TYPE":"U","MEAN_MOTION_DDOT":"0.0000000000000","RA_OF_ASC_NODE":"47.2026","REF_FRAME":"TEME","RCS_SIZE":"LARGE","APOAPSIS":"541.137","ECCENTRICITY":"0.00020230","DECAY_DATE":null,"LAUNCH_DATE":"2021-12-18","TLE_LINE2":"2 50180  53.2187  47.2026 0002023  43.7541 316.3611 15.08842718 49732","PERIAPSIS":"538.338","COUNTRY_CODE":"US","MEAN_ANOMALY":"316.3611","SEMIMAJOR_AXIS":"6917.872","SITE":"AFWTR","GP_ID":"215529123","TIME_SYSTEM":"UTC","TLE_LINE1":"1 50180U 21125AA  22291.58377774 -.00000260  00000-0  17998-5 0  9997","MEAN_ELEMENT_THEORY":"SGP4","REV_AT_EPOCH":"4973","BSTAR":"0.00000179980000","CENTER_NAME":"EARTH","MEAN_MOTION_DOT":"-0.00000260","OBJECT_TYPE":"PAYLOAD","PERIOD":"95.437","NORAD_CAT_ID":"50180","INCLINATION":"53.2187","OBJECT_NAME":"STARLINK-3265","EPHEMERIS_TYPE":"0","EPOCH":"2022-10-18T14:00:38.396736"},{"CLASSIFICATION_TYPE":"U","ELEMENT_SET_NO":"999","FILE":"3621474","OBJECT_ID":"2021-125AB","MEAN_MOTION":"15.08838321","ARG_OF_PERICENTER":"29.4802","APOAPSIS":"541.326","RCS_SIZE":"LARGE","REF_FRAME":"TEME","RA_OF_ASC_NODE":"47.8340","MEAN_MOTION_DDOT":"0.0000000000000","LAUNCH_DATE":"2021-12-18","DECAY_DATE":null,"ECCENTRICITY":"0.00022770","MEAN_ANOMALY":"330.6318","COUNTRY_CODE":"US","PERIAPSIS":"538.175","TLE_LINE2":"2 50181  53.2183  47.8340 0002277  29.4802 330.6318 15.08838321 49677","SITE":"AFWTR","SEMIMAJOR_AXIS":"6917.886","BSTAR":"0.00001854000000","REV_AT_EPOCH":"4967","MEAN_ELEMENT_THEORY":"SGP4","TLE_LINE1":"1 50181U 21125AB  22291.44394159  .00000007  00000-0  18540-4 0  9990","TIME_SYSTEM":"UTC","GP_ID":"215499283","PERIOD":"95.438","OBJECT_TYPE":"PAYLOAD","CENTER_NAME":"EARTH","MEAN_MOTION_DOT":"0.00000007","EPOCH":"2022-10-18T10:39:16.553376","EPHEMERIS_TYPE":"0","OBJECT_NAME":"STARLINK-3285","INCLINATION":"53.2183","NORAD_CAT_ID":"50181"},{"SEMIMAJOR_AXIS":"6917.906","SITE":"AFWTR","MEAN_ELEMENT_THEORY":"SGP4","REV_AT_EPOCH":"4975","TLE_LINE1":"1 50182U 21125AC  22291.76778422  .00000920  00000-0  75941-4 0  9997","TIME_SYSTEM":"UTC","GP_ID":"215530125","BSTAR":"0.00007594100000","MEAN_MOTION_DOT":"0.00000920","CENTER_NAME":"EARTH","OBJECT_TYPE":"PAYLOAD","PERIOD":"95.438","INCLINATION":"53.2192","NORAD_CAT_ID":"50182","EPOCH":"2022-10-18T18:25:36.556608","EPHEMERIS_TYPE":"0","OBJECT_NAME":"STARLINK-3277","ARG_OF_PERICENTER":"21.9829","CLASSIFICATION_TYPE":"U","FILE":"3621750","MEAN_MOTION":"15.08831620","ELEMENT_SET_NO":"999","OBJECT_ID":"2021-125AC","RA_OF_ASC_NODE":"46.3848","MEAN_MOTION_DDOT":"0.0000000000000","APOAPSIS":"541.494","RCS_SIZE":"LARGE","REF_FRAME":"TEME","ECCENTRICITY":"0.00024900","LAUNCH_DATE":"2021-12-18","DECAY_DATE":null,"COUNTRY_CODE":"US","PERIAPSIS":"538.048","TLE_LINE2":"2 50182  53.2192  46.3848 0002490  21.9829 338.1269 15.08831620 49750","MEAN_ANOMALY":"338.1269"},{"ECCENTRICITY":"0.00018870","DECAY_DATE":null,"LAUNCH_DATE":"2021-12-18","PERIAPSIS":"538.495","TLE_LINE2":"2 50183  53.2160  47.8553 0001887  45.3143 314.8003 15.08822042 46586","COUNTRY_CODE":"US","MEAN_ANOMALY":"314.8003","ARG_OF_PERICENTER":"45.3143","CLASSIFICATION_TYPE":"U","OBJECT_ID":"2021-125AD","FILE":"3621312","ELEMENT_SET_NO":"999","MEAN_MOTION":"15.08822042","MEAN_MOTION_DDOT":"0.0000000000000","RA_OF_ASC_NODE":"47.8553","REF_FRAME":"TEME","APOAPSIS":"541.106","RCS_SIZE":"LARGE","MEAN_MOTION_DOT":"-0.00001599","CENTER_NAME":"EARTH","PERIOD":"95.439","OBJECT_TYPE":"PAYLOAD","INCLINATION":"53.2160","NORAD_CAT_ID":"50183","OBJECT_NAME":"STARLINK-3281","EPOCH":"2022-10-18T10:33:58.720608","EPHEMERIS_TYPE":"0","SEMIMAJOR_AXIS":"6917.935","SITE":"AFWTR","TIME_SYSTEM":"UTC","GP_ID":"215472968","REV_AT_EPOCH":"4658","MEAN_ELEMENT_THEORY":"SGP4","TLE_LINE1":"1 50183U 21125AD  22291.44026297 -.00001599  00000-0 -82410-4 0  9993","BSTAR":"-0.00008241000000"},{"SEMIMAJOR_AXIS":"6917.899","SITE":"AFWTR","TIME_SYSTEM":"UTC","GP_ID":"215529623","REV_AT_EPOCH":"4969","MEAN_ELEMENT_THEORY":"SGP4","TLE_LINE1":"1 50185U 21125AF  22291.58009653  .00001396  00000-0  10582-3 0  9990","BSTAR":"0.00010582000000","MEAN_MOTION_DOT":"0.00001396","CENTER_NAME":"EARTH","OBJECT_TYPE":"PAYLOAD","PERIOD":"95.438","INCLINATION":"53.2182","NORAD_CAT_ID":"50185","OBJECT_NAME":"STARLINK-3279","EPOCH":"2022-10-18T13:55:20.340192","EPHEMERIS_TYPE":"0","ARG_OF_PERICENTER":"33.0111","CLASSIFICATION_TYPE":"U","MEAN_MOTION":"15.08833772","FILE":"3621750","ELEMENT_SET_NO":"999","OBJECT_ID":"2021-125AF","MEAN_MOTION_DDOT":"0.0000000000000","RA_OF_ASC_NODE":"47.2175","REF_FRAME":"TEME","APOAPSIS":"541.371","RCS_SIZE":"LARGE","ECCENTRICITY":"0.00023230","DECAY_DATE":null,"LAUNCH_DATE":"2021-12-18","PERIAPSIS":"538.157","TLE_LINE2":"2 50185  53.2182  47.2175 0002323  33.0111 327.1025 15.08833772 49699","COUNTRY_CODE":"US","MEAN_ANOMALY":"327.1025"},{"TLE_LINE2":"2 50186  53.2200  57.7440 0002017  42.9586 317.1563 15.08834567 49045","PERIAPSIS":"538.367","COUNTRY_CODE":"US","MEAN_ANOMALY":"317.1563","ECCENTRICITY":"0.00020170","DECAY_DATE":null,"LAUNCH_DATE":"2021-12-18","MEAN_MOTION_DDOT":"0.0000000000000","RA_OF_ASC_NODE":"57.7440","REF_FRAME":"TEME","RCS_SIZE":"LARGE","APOAPSIS":"541.157","ARG_OF_PERICENTER":"42.9586","ELEMENT_SET_NO":"999","FILE":"3621312","OBJECT_ID":"2021-125AG","MEAN_MOTION":"15.08834567","CLASSIFICATION_TYPE":"U","NORAD_CAT_ID":"50186","INCLINATION":"53.2200","OBJECT_NAME":"STARLINK-3274","EPHEMERIS_TYPE":"0","EPOCH":"2022-10-18T11:04:26.761440","MEAN_MOTION_DOT":"0.00000375","CENTER_NAME":"EARTH","OBJECT_TYPE":"PAYLOAD","PERIOD":"95.438","GP_ID":"215472544","TIME_SYSTEM":"UTC","TLE_LINE1":"1 50186U 21125AG  22291.46142085  .00000375  00000-0  41671-4 0  9995","MEAN_ELEMENT_THEORY":"SGP4","REV_AT_EPOCH":"4904","BSTAR":"0.00004167100000","SEMIMAJOR_AXIS":"6917.897","SITE":"AFWTR"},{"OBJECT_NAME":"STARLINK-3272","EPHEMERIS_TYPE":"0","EPOCH":"2022-10-18T16:30:17.247168","NORAD_CAT_ID":"50187","INCLINATION":"53.2177","PERIOD":"95.438","OBJECT_TYPE":"PAYLOAD","MEAN_MOTION_DOT":"-0.00006289","CENTER_NAME":"EARTH","BSTAR":"-0.00037752000000","GP_ID":"215530625","TIME_SYSTEM":"UTC","TLE_LINE1":"1 50187U 21125AH  22291.68769962 -.00006289  00000-0 -37752-3 0  9995","MEAN_ELEMENT_THEORY":"SGP4","REV_AT_EPOCH":"4982","SITE":"AFWTR","SEMIMAJOR_AXIS":"6917.924","MEAN_ANOMALY":"315.9811","TLE_LINE2":"2 50187  53.2177  36.7203 0001739  44.1320 315.9811 15.08825670 49826","PERIAPSIS":"538.586","COUNTRY_CODE":"US","DECAY_DATE":null,"LAUNCH_DATE":"2021-12-18","ECCENTRICITY":"0.00017390","REF_FRAME":"TEME","RCS_SIZE":"LARGE","APOAPSIS":"540.992","MEAN_MOTION_DDOT":"0.0000000000000","RA_OF_ASC_NODE":"36.7203","ELEMENT_SET_NO":"999","FILE":"3621750","MEAN_MOTION":"15.08825670","OBJECT_ID":"2021-125AH","CLASSIFICATION_TYPE":"U","ARG_OF_PERICENTER":"44.1320"}];
